{
  "norad_id": 68557,
  "name": "STARLINK-37210",
  "history": [
    {
      "epoch": "2026-04-09T20:00:01.999008Z",
      "apogee_km": 273.4510934441114,
      "perigee_km": 272.53722802262655,
      "latitude_deg": -32.938051897508764,
      "longitude_deg": 61.85244588204648,
      "height_km": 283.27421230465234,
      "semi_major_axis_km": 6651.131160733369,
      "eccentricity": 6.87e-05,
      "inclination_deg": 53.1587,
      "raan_deg": 228.7951,
      "arg_perigee_deg": 45.8132,
      "mean_anomaly_deg": 271.7032,
      "mean_motion_rev_day": 16.0051406
    },
    {
      "epoch": "2026-04-10T12:00:02.000160Z",
      "apogee_km": 277.2334721393254,
      "perigee_km": 276.1034861689641,
      "latitude_deg": -15.657725979438377,
      "longitude_deg": 38.6693691105191,
      "height_km": 281.26121732479334,
      "semi_major_axis_km": 6654.805479154144,
      "eccentricity": 8.49e-05,
      "inclination_deg": 53.1587,
      "raan_deg": 225.3581,
      "arg_perigee_deg": 71.0095,
      "mean_anomaly_deg": 128.4749,
      "mean_motion_rev_day": 15.99188705
    },
    {
      "epoch": "2026-04-11T20:00:01.000224Z",
      "apogee_km": 285.38706692190044,
      "perigee_km": 284.146434243542,
      "latitude_deg": -36.01830057060625,
      "longitude_deg": 45.6626549908828,
      "height_km": 296.33056035913404,
      "semi_major_axis_km": 6662.903750582721,
      "eccentricity": 9.31e-05,
      "inclination_deg": 53.1577,
      "raan_deg": 218.5096,
      "arg_perigee_deg": 46.1837,
      "mean_anomaly_deg": 266.8558,
      "mean_motion_rev_day": 15.96274046
    },
    {
      "epoch": "2026-04-13T06:00:02.000160Z",
      "apogee_km": 294.7594588557522,
      "perigee_km": 293.5576449809405,
      "latitude_deg": 7.504744468415543,
      "longitude_deg": 94.17601076997975,
      "height_km": 294.34764870570115,
      "semi_major_axis_km": 6672.295551918346,
      "eccentricity": 9.006e-05,
      "inclination_deg": 53.1591,
      "raan_deg": 211.2599,
      "arg_perigee_deg": 87.3046,
      "mean_anomaly_deg": 83.2497,
      "mean_motion_rev_day": 15.92904903
    },
    {
      "epoch": "2026-04-14T20:00:01.999008Z",
      "apogee_km": 305.9935870119889,
      "perigee_km": 304.8319860590891,
      "latitude_deg": -46.267266065371906,
      "longitude_deg": -68.65759844667396,
      "height_km": 321.71979441040935,
      "semi_major_axis_km": 6683.549786535539,
      "eccentricity": 8.69e-05,
      "inclination_deg": 53.158,
      "raan_deg": 203.2111,
      "arg_perigee_deg": 65.774,
      "mean_anomaly_deg": 178.3831,
      "mean_motion_rev_day": 15.88883228
    },
    {
      "epoch": "2026-04-15T20:00:01.999008Z",
      "apogee_km": 313.7968125225607,
      "perigee_km": 312.36087760220926,
      "latitude_deg": -18.01277399193281,
      "longitude_deg": -111.82831035989675,
      "height_km": 318.3794907576206,
      "semi_major_axis_km": 6691.215845062385,
      "eccentricity": 0.0001073,
      "inclination_deg": 53.1585,
      "raan_deg": 198.1505,
      "arg_perigee_deg": 82.367,
      "mean_anomaly_deg": 120.1226,
      "mean_motion_rev_day": 15.86153459
    },
    {
      "epoch": "2026-04-16T20:00:01.999008Z",
      "apogee_km": 321.8317555080894,
      "perigee_km": 320.12348128039866,
      "latitude_deg": 22.94219796298219,
      "longitude_deg": -150.25526492893013,
      "height_km": 321.58571814952296,
      "semi_major_axis_km": 6699.114618394244,
      "eccentricity": 0.0001275,
      "inclination_deg": 53.1585,
      "raan_deg": 193.1102,
      "arg_perigee_deg": 70.8073,
      "mean_anomaly_deg": 80.1087,
      "mean_motion_rev_day": 15.8334899
    },
    {
      "epoch": "2026-04-17T22:00:01.999584Z",
      "apogee_km": 328.7953042751087,
      "perigee_km": 327.03711124509755,
      "latitude_deg": -18.86384155721896,
      "longitude_deg": -153.63216500708148,
      "height_km": 333.6666328865295,
      "semi_major_axis_km": 6706.053207760103,
      "eccentricity": 0.00013109,
      "inclination_deg": 53.1593,
      "raan_deg": 187.673,
      "arg_perigee_deg": 75.1955,
      "mean_anomaly_deg": 128.3864,
      "mean_motion_rev_day": 15.80892247
    },
    {
      "epoch": "2026-04-18T20:00:01.000224Z",
      "apogee_km": 328.49890430407504,
      "perigee_km": 327.14564172278097,
      "latitude_deg": 18.64723208825377,
      "longitude_deg": 50.68953676990629,
      "height_km": 328.09164129537055,
      "semi_major_axis_km": 6705.959273013427,
      "eccentricity": 0.0001009,
      "inclination_deg": 53.1583,
      "raan_deg": 183.0796,
      "arg_perigee_deg": 104.025,
      "mean_anomaly_deg": 279.4894,
      "mean_motion_rev_day": 15.80925464
    },
    {
      "epoch": "2026-04-19T20:00:01.999008Z",
      "apogee_km": 328.544169975602,
      "perigee_km": 327.2592929546545,
      "latitude_deg": -32.652916948583815,
      "longitude_deg": 1.6089770908619103,
      "height_km": 338.6179594764857,
      "semi_major_axis_km": 6706.038731465128,
      "eccentricity": 9.58e-05,
      "inclination_deg": 53.1578,
      "raan_deg": 178.0677,
      "arg_perigee_deg": 104.3201,
      "mean_anomaly_deg": 213.5971,
      "mean_motion_rev_day": 15.80897366
    },
    {
      "epoch": "2026-04-20T14:00:03.000384Z",
      "apogee_km": 328.6375312208411,
      "perigee_km": 327.19733897036076,
      "latitude_deg": -53.2961484902639,
      "longitude_deg": 23.641825314444464,
      "height_km": 347.11764283182174,
      "semi_major_axis_km": 6706.054435095601,
      "eccentricity": 0.00010738,
      "inclination_deg": 53.1578,
      "raan_deg": 174.3104,
      "arg_perigee_deg": 71.7415,
      "mean_anomaly_deg": 197.069,
      "mean_motion_rev_day": 15.80891813
    },
    {
      "epoch": "2026-04-21T00:00:02.000160Z",
      "apogee_km": 328.7342450259739,
      "perigee_km": 327.1902327372127,
      "latitude_deg": 43.16780570801334,
      "longitude_deg": 98.79611371514271,
      "height_km": 331.5129494292329,
      "semi_major_axis_km": 6706.099238881593,
      "eccentricity": 0.00011512,
      "inclination_deg": 53.1581,
      "raan_deg": 172.2198,
      "arg_perigee_deg": 98.6614,
      "mean_anomaly_deg": 22.8348,
      "mean_motion_rev_day": 15.8087597
    },
    {
      "epoch": "2026-04-22T13:25:15.058848Z",
      "apogee_km": 328.3672053116343,
      "perigee_km": 327.15075578076176,
      "latitude_deg": 6.121275834371102e-05,
      "longitude_deg": 112.47475132650551,
      "height_km": 328.3325551506981,
      "semi_major_axis_km": 6705.895980546197,
      "eccentricity": 9.07e-05,
      "inclination_deg": 53.1578,
      "raan_deg": 164.4065,
      "arg_perigee_deg": 55.4832,
      "mean_anomaly_deg": 304.6277,
      "mean_motion_rev_day": 15.80947846
    },
    {
      "epoch": "2026-04-23T15:12:52.816896Z",
      "apogee_km": 328.50742292976156,
      "perigee_km": 327.0133489921691,
      "latitude_deg": -1.1393407802998248e-05,
      "longitude_deg": 79.12155522076931,
      "height_km": 329.20656491453644,
      "semi_major_axis_km": 6705.897385960965,
      "eccentricity": 0.0001114,
      "inclination_deg": 53.1579,
      "raan_deg": 159.02,
      "arg_perigee_deg": 134.975,
      "mean_anomaly_deg": 225.1363,
      "mean_motion_rev_day": 15.80947349
    },
    {
      "epoch": "2026-04-23T15:12:52.817760Z",
      "apogee_km": 328.50742292976156,
      "perigee_km": 327.0133489921691,
      "latitude_deg": -1.1393407804643594e-05,
      "longitude_deg": 79.12155161091093,
      "height_km": 329.2065649145334,
      "semi_major_axis_km": 6705.897385960965,
      "eccentricity": 0.0001114,
      "inclination_deg": 53.1579,
      "raan_deg": 159.02,
      "arg_perigee_deg": 134.975,
      "mean_anomaly_deg": 225.1363,
      "mean_motion_rev_day": 15.80947349
    },
    {
      "epoch": "2026-04-25T14:14:58.015392Z",
      "apogee_km": 328.3911496751798,
      "perigee_km": 326.9873520078281,
      "latitude_deg": -1.5158834553866697e-05,
      "longitude_deg": 81.84644076093291,
      "height_km": 328.38098649241573,
      "semi_major_axis_km": 6705.826250841504,
      "eccentricity": 0.00010467,
      "inclination_deg": 53.1578,
      "raan_deg": 149.1982,
      "arg_perigee_deg": 71.201,
      "mean_anomaly_deg": 288.9126,
      "mean_motion_rev_day": 15.80972505
    },
    {
      "epoch": "2026-04-27T13:17:05.407584Z",
      "apogee_km": 328.368388033683,
      "perigee_km": 327.3624876680042,
      "latitude_deg": 1.2153898124267536e-05,
      "longitude_deg": 84.56228660293965,
      "height_km": 328.9110272725561,
      "semi_major_axis_km": 6706.002437850843,
      "eccentricity": 7.5e-05,
      "inclination_deg": 53.1575,
      "raan_deg": 139.3765,
      "arg_perigee_deg": 104.6717,
      "mean_anomaly_deg": 255.4389,
      "mean_motion_rev_day": 15.809102
    },
    {
      "epoch": "2026-04-28T18:06:46.728000Z",
      "apogee_km": 329.03322574896356,
      "perigee_km": 326.6914907730579,
      "latitude_deg": -2.888910150304855e-05,
      "longitude_deg": 4.935058698688985,
      "height_km": 328.6430276105366,
      "semi_major_axis_km": 6705.9993582610105,
      "eccentricity": 0.0001746,
      "inclination_deg": 53.1578,
      "raan_deg": 133.3554,
      "arg_perigee_deg": 83.3198,
      "mean_anomaly_deg": 276.8023,
      "mean_motion_rev_day": 15.80911289
    },
    {
      "epoch": "2026-04-29T12:19:12.409248Z",
      "apogee_km": 328.2545720913422,
      "perigee_km": 326.85375320746425,
      "latitude_deg": 1.0633310770698893e-05,
      "longitude_deg": 87.27814283805463,
      "height_km": 328.40630865136393,
      "semi_major_axis_km": 6705.691162649403,
      "eccentricity": 0.00010445,
      "inclination_deg": 53.1576,
      "raan_deg": 129.5532,
      "arg_perigee_deg": 84.6176,
      "mean_anomaly_deg": 275.4966,
      "mean_motion_rev_day": 15.81020279
    },
    {
      "epoch": "2026-04-30T14:06:55.838592Z",
      "apogee_km": 331.25378706847005,
      "perigee_km": 328.1676404923137,
      "latitude_deg": -1.0370824436578467e-05,
      "longitude_deg": 53.9017921249459,
      "height_km": 329.832285114112,
      "semi_major_axis_km": 6707.847713780392,
      "eccentricity": 0.00023004,
      "inclination_deg": 53.1575,
      "raan_deg": 124.1672,
      "arg_perigee_deg": 59.0025,
      "mean_anomaly_deg": 301.1223,
      "mean_motion_rev_day": 15.80257901
    }
  ]
}